[{"OBJECT_NAME":"JILIN-1 07","OBJECT_ID":"2018-008E","EPOCH":"2026-03-09T22:24:26.445888","MEAN_MOTION":15.32987507,"ECCENTRICITY":0.00101791,"INCLINATION":97.1876,"RA_OF_ASC_NODE":91.5817,"ARG_OF_PERICENTER":62.7832,"MEAN_ANOMALY":297.4447,"EPHEMERIS_TYPE":0,"CLASSIFICATION_TYPE":"U","NORAD_CAT_ID":43159,"ELEMENT_SET_NO":999,"REV_AT_EPOCH":44978,"BSTAR":0.00036439521,"MEAN_MOTION_DOT":0.00011559,"MEAN_MOTION_DDOT":0},{"OBJECT_NAME":"GAOFEN-9 04","OBJECT_ID":"2020-054A","EPOCH":"2026-03-09T22:30:58.350240","MEAN_MOTION":15.3498743,"ECCENTRICITY":0.00126493,"INCLINATION":97.2525,"RA_OF_ASC_NODE":139.4278,"ARG_OF_PERICENTER":89.779,"MEAN_ANOMALY":270.4903,"EPHEMERIS_TYPE":0,"CLASSIFICATION_TYPE":"U","NORAD_CAT_ID":46025,"ELEMENT_SET_NO":999,"REV_AT_EPOCH":31112,"BSTAR":0.00016488112,"MEAN_MOTION_DOT":5.53e-5,"MEAN_MOTION_DDOT":0}]
